$$SOE
2461295.500000000, A.D. 2026-Sep-12 00:00:00.0000, -3.998080362825872E+08, -2.690016669851529E+08, -3.651137787508784E+07,
2461302.500000000, A.D. 2026-Sep-19 00:00:00.0000, -3.945374852878602E+08, -2.766833489061526E+08, -3.301242612346721E+07,
2461309.500000000, A.D. 2026-Sep-26 00:00:00.0000, -3.890969594430469E+08, -2.842458372781342E+08, -2.949925141202827E+07,
2461316.500000000, A.D. 2026-Oct-03 00:00:00.0000, -3.834885437628167E+08, -2.916856870096363E+08, -2.597334758818561E+07,
2461323.500000000, A.D. 2026-Oct-10 00:00:00.0000, -3.777143990328755E+08, -2.989994933601623E+08, -2.243621847304554E+07,
2461330.500000000, A.D. 2026-Oct-17 00:00:00.0000, -3.717767615139346E+08, -3.061838934543431E+08, -1.888937733569843E+07,
2461337.500000000, A.D. 2026-Oct-24 00:00:00.0000, -3.656779426235108E+08, -3.132355678990670E+08, -1.533434636442015E+07,
2461344.500000000, A.D. 2026-Oct-31 00:00:00.0000, -3.594203284960580E+08, -3.201512425695010E+08, -1.177265614906859E+07,
2461351.500000000, A.D. 2026-Nov-07 00:00:00.0000, -3.530063790815669E+08, -3.269276904891205E+08, -8.205845199466616E+06,
2461358.500000000, A.D. 2026-Nov-14 00:00:00.0000, -3.464386265808237E+08, -3.335617329153399E+08, -4.635459445393294E+06,
2461365.500000000, A.D. 2026-Nov-21 00:00:00.0000, -3.397196750277180E+08, -3.400502389476457E+08, -1.063051496027589E+06,
2461372.500000000, A.D. 2026-Nov-28 00:00:00.0000, -3.328522020151879E+08, -3.463901266656584E+08, 2.509820187010512E+06,
2461379.500000000, A.D. 2026-Dec-05 00:00:00.0000, -3.258389589448813E+08, -3.525783664536981E+08, 6.081591817544803E+06,
2461386.500000000, A.D. 2026-Dec-12 00:00:00.0000, -3.186827696358218E+08, -3.586119834003611E+08, 9.650694753104895E+06,
2461393.500000000, A.D. 2026-Dec-19 00:00:00.0000, -3.113865291787235E+08, -3.644880587650442E+08, 1.321555607754451E+07,
2461400.500000000, A.D. 2026-Dec-26 00:00:00.0000, -3.039532031770556E+08, -3.702037313778129E+08, 1.677459924031389E+07,
2461407.500000000, A.D. 2027-Jan-02 00:00:00.0000, -2.963858270978766E+08, -3.757561991625736E+08, 2.032624471146697E+07,
2461414.500000000, A.D. 2027-Jan-09 00:00:00.0000, -2.886875056151373E+08, -3.811427207630330E+08, 2.386891064324735E+07,
2461421.500000000, A.D. 2027-Jan-16 00:00:00.0000, -2.808614119106862E+08, -3.863606172623832E+08, 2.740101353568907E+07,
2461428.500000000, A.D. 2027-Jan-23 00:00:00.0000, -2.729107868880916E+08, -3.914072740358546E+08, 3.092096889876072E+07,
2461435.500000000, A.D. 2027-Jan-30 00:00:00.0000, -2.648389381128376E+08, -3.962801427832252E+08, 3.442719188988568E+07,
2461442.500000000, A.D. 2027-Feb-06 00:00:00.0000, -2.566492380555399E+08, -4.009767434004077E+08, 3.791809791559446E+07,
2461449.500000000, A.D. 2027-Feb-13 00:00:00.0000, -2.483451220998320E+08, -4.054946644691089E+08, 4.139210333907194E+07,
2461456.500000000, A.D. 2027-Feb-20 00:00:00.0000, -2.399300886795440E+08, -4.098315631535491E+08, 4.484762644544265E+07,
2461463.500000000, A.D. 2027-Feb-27 00:00:00.0000, -2.314077001494589E+08, -4.139851677161016E+08, 4.828308827367797E+07,
2461470.500000000, A.D. 2027-Mar-06 00:00:00.0000, -2.227815813719431E+08, -4.179532807276871E+08, 5.169691319503865E+07,
2461477.500000000, A.D. 2027-Mar-13 00:00:00.0000, -2.140554176194807E+08, -4.217337809208708E+08, 5.508752955174407E+07,
2461484.500000000, A.D. 2027-Mar-20 00:00:00.0000, -2.052329529210593E+08, -4.253246245174617E+08, 5.845337039034623E+07,
2461491.500000000, A.D. 2027-Mar-27 00:00:00.0000, -1.963179886484887E+08, -4.287238465778472E+08, 6.179287422546709E+07,
2461498.500000000, A.D. 2027-Apr-03 00:00:00.0000, -1.873143821384445E+08, -4.319295624194701E+08, 6.510448581072453E+07,
2461505.500000000, A.D. 2027-Apr-10 00:00:00.0000, -1.782260452888297E+08, -4.349399690817090E+08, 6.838665691289248E+07,
2461512.500000000, A.D. 2027-Apr-17 00:00:00.0000, -1.690569431081567E+08, -4.377533468514308E+08, 7.163784708619508E+07,
2461519.500000000, A.D. 2027-Apr-24 00:00:00.0000, -1.598110921397863E+08, -4.403680609103937E+08, 7.485652443450998E+07,
2461526.500000000, A.D. 2027-May-01 00:00:00.0000, -1.504925584621910E+08, -4.427825630749009E+08, 7.804116633622503E+07,
2461533.500000000, A.D. 2027-May-08 00:00:00.0000, -1.411054549583387E+08, -4.449953928770622E+08, 8.119026016447483E+07,
2461540.500000000, A.D. 2027-May-15 00:00:00.0000, -1.316539393513012E+08, -4.470051770314291E+08, 8.430230421743807E+07,
2461547.500000000, A.D. 2027-May-22 00:00:00.0000, -1.221422145695863E+08, -4.488106298755171E+08, 8.737580878946468E+07,
2461554.500000000, A.D. 2027-May-29 00:00:00.0000, -1.125745280857556E+08, -4.504105562504318E+08, 9.040929695452482E+07,
2461561.500000000, A.D. 2027-Jun-05 00:00:00.0000, -1.029551693437676E+08, -4.518038536885087E+08, 9.340130523640029E+07,
2461568.500000000, A.D. 2027-Jun-12 00:00:00.0000, -9.328846728315251E+07, -4.529895134740702E+08, 9.635038438451229E+07,
2461575.500000000, A.D. 2027-Jun-19 00:00:00.0000, -8.357878829133189E+07, -4.539666215096741E+08, 9.925510020855619E+07,
2461582.500000000, A.D. 2027-Jun-26 00:00:00.0000, -7.383053430468147E+07, -4.547343592466155E+08, 1.021140344240821E+08,
2461589.500000000, A.D. 2027-Jul-03 00:00:00.0000, -6.404814092604391E+07, -4.552920046692067E+08, 1.049257854967623E+08,
2461596.500000000, A.D. 2027-Jul-10 00:00:00.0000, -5.423607552171045E+07, -4.556389333225373E+08, 1.076889694821166E+08,
2461603.500000000, A.D. 2027-Jul-17 00:00:00.0000, -4.439883526177347E+07, -4.557746194215271E+08, 1.104022208539872E+08,
2461610.500000000, A.D. 2027-Jul-24 00:00:00.0000, -3.454094494826881E+07, -4.556986371031397E+08, 1.130641933023024E+08,
2461617.500000000, A.D. 2027-Jul-31 00:00:00.0000, -2.466695422099251E+07, -4.554106615850710E+08, 1.156735604816199E+08,
2461624.500000000, A.D. 2027-Aug-07 00:00:00.0000, -1.478143434332342E+07, -4.549104690775405E+08, 1.182290168227062E+08,
2461631.500000000, A.D. 2027-Aug-14 00:00:00.0000, -4.888976870764066E+06, -4.541979356990391E+08, 1.207292785966689E+08,
2461638.500000000, A.D. 2027-Aug-21 00:00:00.0000, 5.005806415109527E+06, -4.532730387574341E+08, 1.231730848987343E+08,
2461645.500000000, A.D. 2027-Aug-28 00:00:00.0000, 1.489828573777354E+07, -4.521358591915976E+08, 1.255591983344525E+08,
2461652.500000000, A.D. 2027-Sep-04 00:00:00.0000, 2.478381653957723E+07, -4.507865826702230E+08, 1.278864057206018E+08,
2461659.500000000, A.D. 2027-Sep-11 00:00:00.0000, 3.465774228131828E+07, -4.492255000075710E+08, 1.301535188738833E+08,
2461666.500000000, A.D. 2027-Sep-18 00:00:00.0000, 4.451539695912518E+07, -4.474530075443655E+08, 1.323593754209587E+08,
2461673.500000000, A.D. 2027-Sep-25 00:00:00.0000, 5.435210756587897E+07, -4.454696075693510E+08, 1.345028396012750E+08,
2461680.500000000, A.D. 2027-Oct-02 00:00:00.0000, 6.416319657067065E+07, -4.432759087517561E+08, 1.365828030567423E+08,
2461687.500000000, A.D. 2027-Oct-09 00:00:00.0000, 7.394398443739492E+07, -4.408726265871018E+08, 1.385981856046167E+08,
2461694.500000000, A.D. 2027-Oct-16 00:00:00.0000, 8.368979224432792E+07, -4.382605839095657E+08, 1.405479359824171E+08,
2461701.500000000, A.D. 2027-Oct-23 00:00:00.0000, 9.339594466286346E+07, -4.354407114753439E+08, 1.424310325400234E+08,
2461708.500000000, A.D. 2027-Oct-30 00:00:00.0000, 1.030577736676988E+08, -4.324140480055677E+08, 1.442464838939730E+08,
2461715.500000000, A.D. 2027-Nov-06 00:00:00.0000, 1.126706218118149E+08, -4.291817385590446E+08, 1.459933297418533E+08,
2461722.500000000, A.D. 2027-Nov-13 00:00:00.0000, 1.222298430774309E+08, -4.257450333082540E+08, 1.476706418471398E+08,
2461729.500000000, A.D. 2027-Nov-20 00:00:00.0000, 1.317308042026184E+08, -4.221052889012104E+08, 1.492775247471390E+08,
2461736.500000000, A.D. 2027-Nov-27 00:00:00.0000, 1.411688881001115E+08, -4.182639694427661E+08, 1.508131162763046E+08,
2461743.500000000, A.D. 2027-Dec-04 00:00:00.0000, 1.505394973437062E+08, -4.142226461806081E+08, 1.522765881644777E+08,
2461750.500000000, A.D. 2027-Dec-11 00:00:00.0000, 1.598380571702140E+08, -4.099829968595799E+08, 1.536671466815369E+08,
2461757.500000000, A.D. 2027-Dec-18 00:00:00.0000, 1.690600182698612E+08, -4.055468050834364E+08, 1.549840332756027E+08,
2461764.500000000, A.D. 2027-Dec-25 00:00:00.0000, 1.782008595142805E+08, -4.009159596862119E+08, 1.562265251906423E+08,
2461771.500000000, A.D. 2028-Jan-01 00:00:00.0000, 1.872560906601923E+08, -3.960924540982935E+08, 1.573939360603636E+08,
$$EOE